{
  "type": "FeatureCollection",
  "features": [
    {
      "type": "Feature",
      "properties": {
        "norad_id": 66585,
        "name": "STARLINK-35963",
        "group": "last-30-days",
        "lat": 11.689553435775268,
        "lon": 170.65683253535093,
        "alt_km": 378.64731430658867,
        "timestamp": "2025-12-06T11:28:09.787199+00:00",
        "meta_object_name": "STARLINK-35963",
        "meta_object_id": "2025-268AE",
        "meta_epoch": "2025-12-05T22:00:03.000096",
        "meta_mean_motion": 15.64952553,
        "meta_eccentricity": 0.00015255,
        "meta_inclination": 42.9999,
        "meta_ra_of_asc_node": 161.1769,
        "meta_arg_of_pericenter": 275.4927,
        "meta_mean_anomaly": 178.8033,
        "meta_ephemeris_type": 0,
        "meta_classification_type": "U",
        "meta_norad_cat_id": 66585,
        "meta_element_set_no": 999,
        "meta_rev_at_epoch": 357,
        "meta_bstar": -0.021918417,
        "meta_mean_motion_dot": -0.01950636,
        "meta_mean_motion_ddot": 0,
        "tle_line1": "1 66585U 25268AE  25339.91670139 -.01950636  00000+0 -21918-1 0  9994",
        "tle_line2": "2 66585  42.9999 161.1769 0001525 275.4927 178.8033 15.64952553  3574"
      },
      "geometry": {
        "type": "Point",
        "coordinates": [
          170.65683253535093,
          11.689553435775268
        ]
      }
    },
    {
      "type": "Feature",
      "properties": {
        "norad_id": 66586,
        "name": "TJS-21",
        "group": "last-30-days",
        "lat": 63.17780076107828,
        "lon": -102.60974348133217,
        "alt_km": 38179.34390410796,
        "timestamp": "2025-12-06T11:28:09.787214+00:00",
        "meta_object_name": "TJS-21",
        "meta_object_id": "2025-269A",
        "meta_epoch": "2025-12-05T05:53:45.339360",
        "meta_mean_motion": 2.00559462,
        "meta_eccentricity": 0.68051288,
        "meta_inclination": 63.2734,
        "meta_ra_of_asc_node": 163.1383,
        "meta_arg_of_pericenter": 269.8052,
        "meta_mean_anomaly": 18.6619,
        "meta_ephemeris_type": 0,
        "meta_classification_type": "U",
        "meta_norad_cat_id": 66586,
        "meta_element_set_no": 999,
        "meta_rev_at_epoch": 29,
        "meta_bstar": -0.017798837,
        "meta_mean_motion_dot": 1.125e-05,
        "meta_mean_motion_ddot": 0,
        "tle_line1": "1 66586U 25269A   25339.24566365  .00001125  00000+0 -17799-1 0  9997",
        "tle_line2": "2 66586  63.2734 163.1383 6805128 269.8052  18.6619  2.00559462   290"
      },
      "geometry": {
        "type": "Point",
        "coordinates": [
          -102.60974348133217,
          63.17780076107828
        ]
      }
    },
    {
      "type": "Feature",
      "properties": {
        "norad_id": 66587,
        "name": "CZ-3B R/B",
        "group": "last-30-days",
        "lat": 24.03381534776744,
        "lon": -168.0233286698025,
        "alt_km": 34893.696461530395,
        "timestamp": "2025-12-06T11:28:09.787230+00:00",
        "meta_object_name": "CZ-3B R/B",
        "meta_object_id": "2025-269B",
        "meta_epoch": "2025-12-02T10:16:46.437600",
        "meta_mean_motion": 2.0223182,
        "meta_eccentricity": 0.75203475,
        "meta_inclination": 51.3575,
        "meta_ra_of_asc_node": 172.0321,
        "meta_arg_of_pericenter": 226.8728,
        "meta_mean_anomaly": 39.3228,
        "meta_ephemeris_type": 0,
        "meta_classification_type": "U",
        "meta_norad_cat_id": 66587,
        "meta_element_set_no": 999,
        "meta_rev_at_epoch": 24,
        "meta_bstar": 0.0019543247,
        "meta_mean_motion_dot": 0.00047329,
        "meta_mean_motion_ddot": -2.45602e-07,
        "tle_line1": "1 66587U 25269B   25336.42831525  .00047329 -24560-6  19543-2 0  9998",
        "tle_line2": "2 66587  51.3575 172.0321 7520347 226.8728  39.3228  2.02231820   242"
      },
      "geometry": {
        "type": "Point",
        "coordinates": [
          -168.0233286698025,
          24.03381534776744
        ]
      }
    },
    {
      "type": "Feature",
      "properties": {
        "norad_id": 66588,
        "name": "STARLINK-36076",
        "group": "last-30-days",
        "lat": 6.7925751101837655,
        "lon": 42.36074333718699,
        "alt_km": 360.90627646119265,
        "timestamp": "2025-12-06T11:28:09.787244+00:00",
        "meta_object_name": "STARLINK-36076",
        "meta_object_id": "2025-270A",
        "meta_epoch": "2025-12-05T22:00:03.000096",
        "meta_mean_motion": 15.712837,
        "meta_eccentricity": 0.0001324,
        "meta_inclination": 42.9985,
        "meta_ra_of_asc_node": 233.0855,
        "meta_arg_of_pericenter": 258.6094,
        "meta_mean_anomaly": 335.4299,
        "meta_ephemeris_type": 0,
        "meta_classification_type": "U",
        "meta_norad_cat_id": 66588,
        "meta_element_set_no": 999,
        "meta_rev_at_epoch": 330,
        "meta_bstar": -0.016733547,
        "meta_mean_motion_dot": -0.01937829,
        "meta_mean_motion_ddot": 0,
        "tle_line1": "1 66588U 25270A   25339.91670139 -.01937829  00000+0 -16734-1 0  9999",
        "tle_line2": "2 66588  42.9985 233.0855 0001324 258.6094 335.4299 15.71283700  3307"
      },
      "geometry": {
        "type": "Point",
        "coordinates": [
          42.36074333718699,
          6.7925751101837655
        ]
      }
    },
    {
      "type": "Feature",
      "properties": {
        "norad_id": 66589,
        "name": "STARLINK-35447",
        "group": "last-30-days",
        "lat": 4.19348751635731,
        "lon": 45.182039294772295,
        "alt_km": 361.10048408588864,
        "timestamp": "2025-12-06T11:28:09.787254+00:00",
        "meta_object_name": "STARLINK-35447",
        "meta_object_id": "2025-270B",
        "meta_epoch": "2025-12-05T22:00:03.000096",
        "meta_mean_motion": 15.71284695,
        "meta_eccentricity": 0.00014279,
        "meta_inclination": 42.9986,
        "meta_ra_of_asc_node": 233.0757,
        "meta_arg_of_pericenter": 255.4697,
        "meta_mean_anomaly": 342.4026,
        "meta_ephemeris_type": 0,
        "meta_classification_type": "U",
        "meta_norad_cat_id": 66589,
        "meta_element_set_no": 999,
        "meta_rev_at_epoch": 341,
        "meta_bstar": -0.01674502,
        "meta_mean_motion_dot": -0.01939158,
        "meta_mean_motion_ddot": 0,
        "tle_line1": "1 66589U 25270B   25339.91670139 -.01939158  00000+0 -16745-1 0  9999",
        "tle_line2": "2 66589  42.9986 233.0757 0001427 255.4697 342.4026 15.71284695  3410"
      },
      "geometry": {
        "type": "Point",
        "coordinates": [
          45.182039294772295,
          4.19348751635731
        ]
      }
    },
    {
      "type": "Feature",
      "properties": {
        "norad_id": 66590,
        "name": "STARLINK-35429",
        "group": "last-30-days",
        "lat": 5.502363210393584,
        "lon": 43.766278355022656,
        "alt_km": 360.99497094392245,
        "timestamp": "2025-12-06T11:28:09.787270+00:00",
        "meta_object_name": "STARLINK-35429",
        "meta_object_id": "2025-270C",
        "meta_epoch": "2025-12-05T22:00:03.000096",
        "meta_mean_motion": 15.7127804,
        "meta_eccentricity": 0.00011927,
        "meta_inclination": 42.9986,
        "meta_ra_of_asc_node": 233.0806,
        "meta_arg_of_pericenter": 251.6761,
        "meta_mean_anomaly": 344.3158,
        "meta_ephemeris_type": 0,
        "meta_classification_type": "U",
        "meta_norad_cat_id": 66590,
        "meta_element_set_no": 999,
        "meta_rev_at_epoch": 341,
        "meta_bstar": -0.017011563,
        "meta_mean_motion_dot": -0.01965748,
        "meta_mean_motion_ddot": 0,
        "tle_line1": "1 66590U 25270C   25339.91670139 -.01965748  00000+0 -17012-1 0  9993",
        "tle_line2": "2 66590  42.9986 233.0806 0001192 251.6761 344.3158 15.71278040  3410"
      },
      "geometry": {
        "type": "Point",
        "coordinates": [
          43.766278355022656,
          5.502363210393584
        ]
      }
    },
    {
      "type": "Feature",
      "properties": {
        "norad_id": 66591,
        "name": "STARLINK-36058",
        "group": "last-30-days",
        "lat": 2.8899673357861486,
        "lon": 46.584941211465846,
        "alt_km": 361.3244970405767,
        "timestamp": "2025-12-06T11:28:09.787290+00:00",
        "meta_object_name": "STARLINK-36058",
        "meta_object_id": "2025-270D",
        "meta_epoch": "2025-12-05T22:00:03.000096",
        "meta_mean_motion": 15.71284217,
        "meta_eccentricity": 0.00014161,
        "meta_inclination": 42.9985,
        "meta_ra_of_asc_node": 233.0711,
        "meta_arg_of_pericenter": 258.18,
        "meta_mean_anomaly": 341.6132,
        "meta_ephemeris_type": 0,
        "meta_classification_type": "U",
        "meta_norad_cat_id": 66591,
        "meta_element_set_no": 999,
        "meta_rev_at_epoch": 330,
        "meta_bstar": -0.01677465,
        "meta_mean_motion_dot": -0.01942151,
        "meta_mean_motion_ddot": 0,
        "tle_line1": "1 66591U 25270D   25339.91670139 -.01942151  00000+0 -16775-1 0  9992",
        "tle_line2": "2 66591  42.9985 233.0711 0001416 258.1800 341.6132 15.71284217  3303"
      },
      "geometry": {
        "type": "Point",
        "coordinates": [
          46.584941211465846,
          2.8899673357861486
        ]
      }
    }
  ]
}